[Satellite]
VERSION=1.1
NAME=TURKSAT 4A
NICKNAME=TURKSAT 4A
TLE1=1 39522U 14007A   15055.07079194  .00000120  00000-0  10000-3 0  9993
TLE2=2 39522   0.0623 275.8559 0004657  16.6845 288.5247  1.00272829  3782
